$$SOE
2460147.500000000, A.D. 2023-Jul-22 00:00:00.0000, 3.026303223757107E+08, 5.042987130306482E+07, 1.170361378173787E+06,
2460154.500000000, A.D. 2023-Jul-29 00:00:00.0000, 2.995873402805799E+08, 6.315769549819566E+07, 2.505551345029343E+06,
2460161.500000000, A.D. 2023-Aug-05 00:00:00.0000, 2.960378665957787E+08, 7.577882156355537E+07, 3.836495984509349E+06,
2460168.500000000, A.D. 2023-Aug-12 00:00:00.0000, 2.919850721349454E+08, 8.827118436193489E+07, 5.160907542187400E+06,
2460175.500000000, A.D. 2023-Aug-19 00:00:00.0000, 2.874332739127573E+08, 1.006127623738268E+08, 6.476487769027539E+06,
2460182.500000000, A.D. 2023-Aug-26 00:00:00.0000, 2.823879422929747E+08, 1.127816505172641E+08, 7.780935245410174E+06,
2460189.500000000, A.D. 2023-Sep-02 00:00:00.0000, 2.768557022972901E+08, 1.247561342386123E+08, 9.071952913146444E+06,
2460196.500000000, A.D. 2023-Sep-09 00:00:00.0000, 2.708443289156739E+08, 1.365147642787051E+08, 1.034725575516617E+07,
2460203.500000000, A.D. 2023-Sep-16 00:00:00.0000, 2.643627364582476E+08, 1.480364314719561E+08, 1.160457854566973E+07,
2460210.500000000, A.D. 2023-Sep-23 00:00:00.0000, 2.574209623077629E+08, 1.593004412530317E+08, 1.284168359527538E+07,
2460217.500000000, A.D. 2023-Sep-30 00:00:00.0000, 2.500301447351300E+08, 1.702865884248438E+08, 1.405636855410662E+07,
2460224.500000000, A.D. 2023-Oct-07 00:00:00.0000, 2.422024924831676E+08, 1.809752310133873E+08, 1.524647437730931E+07,
2460231.500000000, A.D. 2023-Oct-14 00:00:00.0000, 2.339512473073682E+08, 1.913473592895252E+08, 1.640989302162871E+07,
2460238.500000000, A.D. 2023-Oct-21 00:00:00.0000, 2.252906429296294E+08, 2.013846609676874E+08, 1.754457464303000E+07,
2460245.500000000, A.D. 2023-Oct-28 00:00:00.0000, 2.162358592778519E+08, 2.110695842811209E+08, 1.864853455051917E+07,
2460252.500000000, A.D. 2023-Nov-04 00:00:00.0000, 2.068029711391661E+08, 2.203853976391202E+08, 1.971985991287135E+07,
2460259.500000000, A.D. 2023-Nov-11 00:00:00.0000, 1.970088918440089E+08, 2.293162447757428E+08, 2.075671609988773E+07,
2460266.500000000, A.D. 2023-Nov-18 00:00:00.0000, 1.868713126825480E+08, 2.378471948814218E+08, 2.175735258129597E+07,
2460273.500000000, A.D. 2023-Nov-25 00:00:00.0000, 1.764086386433425E+08, 2.459642873588839E+08, 2.272010833080643E+07,
2460280.500000000, A.D. 2023-Dec-02 00:00:00.0000, 1.656399210529751E+08, 2.536545708854564E+08, 2.364341669091880E+07,
2460287.500000000, A.D. 2023-Dec-09 00:00:00.0000, 1.545847877760218E+08, 2.609061364944710E+08, 2.452580965447438E+07,
2460294.500000000, A.D. 2023-Dec-16 00:00:00.0000, 1.432633718689892E+08, 2.677081445371794E+08, 2.536592151505277E+07,
2460301.500000000, A.D. 2023-Dec-23 00:00:00.0000, 1.316962396585225E+08, 2.740508461352352E+08, 2.616249189647065E+07,
2460308.500000000, A.D. 2023-Dec-30 00:00:00.0000, 1.199043175275491E+08, 2.799256001556548E+08, 2.691436836155745E+07,
2460315.500000000, A.D. 2024-Jan-06 00:00:00.0000, 1.079088162327872E+08, 2.853248833869215E+08, 2.762050856677839E+07,
2460322.500000000, A.D. 2024-Jan-13 00:00:00.0000, 9.573115649981838E+07, 2.902422922378193E+08, 2.827998153131725E+07,
2460329.500000000, A.D. 2024-Jan-20 00:00:00.0000, 8.339289768111141E+07, 2.946725392331697E+08, 2.889196817251836E+07,
2460336.500000000, A.D. 2024-Jan-27 00:00:00.0000, 7.091566796455240E+07, 2.986114451879491E+08, 2.945576136259691E+07,
2460343.500000000, A.D. 2024-Feb-03 00:00:00.0000, 5.832109617305422E+07, 3.020559263945845E+08, 2.997076549058348E+07,
2460350.500000000, A.D. 2024-Feb-10 00:00:00.0000, 4.563074585753646E+07, 3.050039768624818E+08, 3.043649550800245E+07,
2460357.500000000, A.D. 2024-Feb-17 00:00:00.0000, 3.286605219836618E+07, 3.074546459834319E+08, 3.085257547822247E+07,
2460364.500000000, A.D. 2024-Feb-24 00:00:00.0000, 2.004826207573463E+07, 3.094080120306735E+08, 3.121873666289343E+07,
2460371.500000000, A.D. 2024-Mar-02 00:00:00.0000, 7.198377609555463E+06, 3.108651518717303E+08, 3.153481517838205E+07,
2460378.500000000, A.D. 2024-Mar-09 00:00:00.0000, -5.662896474753452E+06, 3.118281072571112E+08, 3.180074924461859E+07,
2460385.500000000, A.D. 2024-Mar-16 00:00:00.0000, -1.851520109520895E+07, 3.122998483132166E+08, 3.201657604794914E+07,
2460392.500000000, A.D. 2024-Mar-23 00:00:00.0000, -3.133856666767846E+07, 3.122842357826573E+08, 3.218242836092508E+07,
2460399.500000000, A.D. 2024-Mar-30 00:00:00.0000, -4.411345473636241E+07, 3.117859824134971E+08, 3.229853116457213E+07,
2460406.500000000, A.D. 2024-Apr-06 00:00:00.0000, -5.682079709823696E+07, 3.108106105290158E+08, 3.236519801409639E+07,
2460413.500000000, A.D. 2024-Apr-13 00:00:00.0000, -6.944202890132581E+07, 3.093644070039597E+08, 3.238282693165028E+07,
2460420.500000000, A.D. 2024-Apr-20 00:00:00.0000, -8.195911672944364E+07, 3.074543787126904E+08, 3.235189617280535E+07,
2460427.500000000, A.D. 2024-Apr-27 00:00:00.0000, -9.435458327635229E+07, 3.050882082407970E+08, 3.227295999644534E+07,
2460434.500000000, A.D. 2024-May-04 00:00:00.0000, -1.066115286414470E+08, 3.022742094790162E+08, 3.214664440684237E+07,
2460441.500000000, A.D. 2024-May-11 00:00:00.0000, -1.187136481550073E+08, 2.990212832958139E+08, 3.197364287014557E+07,
2460448.500000000, A.D. 2024-May-18 00:00:00.0000, -1.306452468174789E+08, 2.953388735815877E+08, 3.175471202948460E+07,
2460455.500000000, A.D. 2024-May-25 00:00:00.0000, -1.423912505106885E+08, 2.912369239002824E+08, 3.149066744314241E+07,
2460462.500000000, A.D. 2024-Jun-01 00:00:00.0000, -1.539372141163188E+08, 2.867258349053125E+08, 3.118237936024629E+07,
2460469.500000000, A.D. 2024-Jun-08 00:00:00.0000, -1.652693264995919E+08, 2.818164226830630E+08, 3.083076853149077E+07,
2460476.500000000, A.D. 2024-Jun-15 00:00:00.0000, -1.763744121694089E+08, 2.765198787284489E+08, 3.043680208223902E+07,
2460483.500000000, A.D. 2024-Jun-22 00:00:00.0000, -1.872399308355301E+08, 2.708477328643558E+08, 3.000148965333971E+07,
2460490.500000000, A.D. 2024-Jun-29 00:00:00.0000, -1.978539771957986E+08, 2.648118174018358E+08, 2.952587986972876E+07,
2460497.500000000, A.D. 2024-Jul-06 00:00:00.0000, -2.082052785036957E+08, 2.584242301543675E+08, 2.901105670232953E+07,
2460504.500000000, A.D. 2024-Jul-13 00:00:00.0000, -2.182831881627166E+08, 2.516972991801787E+08, 2.845813578263536E+07,
2460511.500000000, A.D. 2024-Jul-20 00:00:00.0000, -2.280776775325047E+08, 2.446435504402114E+08, 2.786826095225035E+07,
2460518.500000000, A.D. 2024-Jul-27 00:00:00.0000, -2.375793267930768E+08, 2.372756774330904E+08, 2.724260103401703E+07,
2460525.500000000, A.D. 2024-Aug-03 00:00:00.0000, -2.467793147822112E+08, 2.296065124370069E+08, 2.658234677352889E+07,
2460532.500000000, A.D. 2024-Aug-10 00:00:00.0000, -2.556694078223515E+08, 2.216489993539311E+08, 2.588870793910652E+07,
2460539.500000000, A.D. 2024-Aug-17 00:00:00.0000, -2.642419476570282E+08, 2.134161681705979E+08, 2.516291057913922E+07,
2460546.500000000, A.D. 2024-Aug-24 00:00:00.0000, -2.724898386198217E+08, 2.049211109937599E+08, 2.440619443141563E+07,
2460553.500000000, A.D. 2024-Aug-31 00:00:00.0000, -2.804065340578023E+08, 1.961769595639859E+08, 2.361981046606874E+07,
2460560.500000000, A.D. 2024-Sep-07 00:00:00.0000, -2.879860217709477E+08, 1.871968643289451E+08, 2.280501853521173E+07,
2460567.500000000, A.D. 2024-Sep-14 00:00:00.0000, -2.952228085002531E+08, 1.779939760184920E+08, 2.196308519854960E+07,
2460574.500000000, A.D. 2024-Sep-21 00:00:00.0000, -3.021119056049114E+08, 1.685814300760708E+08, 2.109528194012468E+07,
2460581.500000000, A.D. 2024-Sep-28 00:00:00.0000, -3.086488165198246E+08, 1.589723306615378E+08, 2.020288355218970E+07,
2460588.500000000, A.D. 2024-Oct-05 00:00:00.0000, -3.148295224089441E+08, 1.491797341664039E+08, 1.928716634435009E+07,
2460595.500000000, A.D. 2024-Oct-12 00:00:00.0000, -3.206504664498616E+08, 1.392166351502459E+08, 1.834940644882438E+07,
2460602.500000000, A.D. 2024-Oct-19 00:00:00.0000, -3.261085385777676E+08, 1.290959543581272E+08, 1.739087835444393E+07,
2460609.500000000, A.D. 2024-Oct-26 00:00:00.0000, -3.312010607891535E+08, 1.188305279540865E+08, 1.641285360094699E+07,
2460616.500000000, A.D. 2024-Nov-02 00:00:00.0000, -3.359257728032821E+08, 1.084330977572319E+08, 1.541659959179634E+07,
2460623.500000000, A.D. 2024-Nov-09 00:00:00.0000, -3.402808180326391E+08, 9.791630243460548E+07, 1.440337851225898E+07,
2460630.500000000, A.D. 2024-Nov-16 00:00:00.0000, -3.442647298784468E+08, 8.729266958534501E+07, 1.337444634432891E+07,
2460637.500000000, A.D. 2024-Nov-23 00:00:00.0000, -3.478764183405018E+08, 7.657460860210322E+07, 1.233105196412293E+07,
2460644.500000000, A.D. 2024-Nov-30 00:00:00.0000, -3.511151567635291E+08, 6.577440420471962E+07, 1.127443629329133E+07,
2460651.500000000, A.D. 2024-Dec-07 00:00:00.0000, -3.539805683254661E+08, 5.490421100617459E+07, 1.020583149463336E+07,
2460658.500000000, A.D. 2024-Dec-14 00:00:00.0000, -3.564726129761918E+08, 4.397605027547453E+07, 9.126460369534763E+06,
2460665.500000000, A.D. 2024-Dec-21 00:00:00.0000, -3.585915771634577E+08, 3.300180759875935E+07, 8.037536062986026E+06,
2460672.500000000, A.D. 2024-Dec-28 00:00:00.0000, -3.603380643909910E+08, 2.199322841808562E+07, 6.940261647457230E+06,
2460679.500000000, A.D. 2025-Jan-04 00:00:00.0000, -3.617129840198088E+08, 1.096191377577318E+07, 5.835829536871970E+06,
2460686.500000000, A.D. 2025-Jan-11 00:00:00.0000, -3.627175401341492E+08, -8.068212613104680E+04, 4.725421028911362E+06,
2460693.500000000, A.D. 2025-Jan-18 00:00:00.0000, -3.633532213923696E+08, -1.112325352110166E+07, 3.610205979989392E+06,
2460700.500000000, A.D. 2025-Jan-25 00:00:00.0000, -3.636217916243541E+08, -2.215464434830556E+07, 2.491342547273207E+06,
2460707.500000000, A.D. 2025-Feb-01 00:00:00.0000, -3.635252809866229E+08, -3.316384926936099E+07, 1.369976973827206E+06,
2460714.500000000, A.D. 2025-Feb-08 00:00:00.0000, -3.630659776137818E+08, -4.414001445214999E+07, 2.472434092961214E+05,
$$EOE